ARIANE 40 R/B           
1 20443U 90005H   26043.17116420  .00000292  00000+0  10655-3 0  9996
2 20443  98.3142 104.5859 0008914 282.5681  77.4510 14.39853293889138
DELTA 2 R/B(1)          
1 20453U 90008B   26043.12870800  .00073049  00000+0  95506-3 0  9992
2 20453  35.6052 342.1427 0092479  19.8779 340.5524 15.52422100922156
COSMOS 2058             
1 20465U 90010A   26043.15554910  .00004748  00000+0  28164-3 0  9998
2 20465  82.4649  72.5828 0011733  68.2711 291.9767 15.11083401938380
SL-14 R/B               
1 20466U 90010B   26043.12446953  .00000474  00000+0  54541-4 0  9994
2 20466  82.5023 291.4046 0020585  28.1166 332.1156 14.83546807924697
SL-14 R/B               
1 20511U 90018B   26043.05010787  .00000474  00000+0  56489-4 0  9990
2 20511  82.5180 247.0598 0016461 171.5118 188.6378 14.82117379918789
HST                     
1 20580U 90037B   26042.70850717  .00007862  00000+0  26282-3 0  9998
2 20580  28.4660 217.1802 0001637 171.3717 188.6907 15.29062315769339
SL-16 R/B               
1 20625U 90046B   26043.10677916  .00000316  00000+0  18760-3 0  9990
2 20625  71.0009 351.6398 0014913 335.2885  24.7521 14.15008214844778
COSMOS 2084             
1 20663U 90055A   26043.15088336  .00002829  00000+0  20899-3 0  9996
2 20663  62.7895  62.6701 0021112 184.6124 175.4786 15.05483003932473
SL-6 R/B(2)             
1 20666U 90055D   26043.09897061  .00003018  00000+0  23397-3 0  9992
2 20666  62.7848 340.8666 0020915 340.0871  19.9410 15.03462841934341
SL-8 R/B                
1 20775U 90078B   26043.10017059  .00016470  00000+0  48439-3 0  9991
2 20775  82.9022 274.3081 0366742  99.7328 264.5509 14.88210290805499
SL-8 R/B                
1 21088U 91006B   26042.92360115  .00000034  00000+0  18018-4 0  9994
2 21088  82.9439 189.2013 0023727 106.9068  16.9465 13.77492185760529
OKEAN-3                 
1 21397U 91039A   26042.94346855  .00004157  00000+0  29344-3 0  9993
2 21397  82.5175   1.7775 0016413  61.6284 298.6595 15.04597470861169
COSMOS 2151             
1 21422U 91042A   26043.13489984  .00002012  00000+0  15939-3 0  9992
2 21422  82.4959 108.3284 0013522 140.8436 219.3770 15.00007642859360
SL-14 R/B               
1 21423U 91042B   26043.03020186  .00000442  00000+0  52965-4 0  9993
2 21423  82.4898 244.2493 0016305 330.0826  29.9454 14.81804313849274
ERS-1                   
1 21574U 91050A   26043.04760890  .00000403  00000+0  14369-3 0  9995
2 21574  98.7894  60.6373 0030908 278.6862  81.0824 14.39428488812049
ARIANE 40 R/B           
1 21610U 91050F   26043.15953199  .00000339  00000+0  11404-3 0  9999
2 21610  98.2068  96.3471 0003973 137.4020 222.7479 14.42874631815315
INTERCOSMOS 25          
1 21819U 91086A   26043.14623726  .00001627  00000+0  31585-3 0  9991
2 21819  82.6086 325.4439 1486842 171.9604 190.8498 12.11929086493592
SL-8 R/B                
1 21876U 92008B   26043.14415027  .00000033  00000+0  18762-4 0  9995
2 21876  82.9259 286.7831 0033984 204.1648 309.6962 13.75969713705905
SL-8 R/B                
1 21938U 92020B   26042.88247854  .00000122  00000+0  11085-3 0  9998
2 21938  82.9334 172.9165 0029095  12.5203 111.5349 13.75545870697587
USA 81                  
1 21949U 92023A   26042.74150199  .00000209  00000+0  70157-4 0  9995
2 21949  85.0120 146.4035 0002685 101.0186 259.1309 14.32358479 91076
COSMOS 2219             
1 22219U 92076A   26043.12590067  .00000025  00000+0  37948-4 0  9996
2 22219  71.0578  71.5108 0020189 241.8281 118.0802 14.14076683714769
SL-16 R/B               
1 22220U 92076B   26043.01637384 -.00000098  00000+0 -24753-4 0  9992
2 22220  70.9978 242.4542 0011293 142.4325  11.2115 14.16855997718192
COSMOS 2221             
1 22236U 92080A   26043.15604154  .00001985  00000+0  17407-3 0  9999
2 22236  82.5053 303.5358 0012803 280.7424  79.2356 14.96100497776977
SL-16 R/B               
1 22285U 92093B   26043.15689455  .00000125  00000+0  88600-4 0  9993
2 22285  71.0200  57.8668 0005247 320.9390  39.1354 14.15441522709544
COSMOS 2228             
1 22286U 92094A   26043.12226828  .00001941  00000+0  16558-3 0  9992
2 22286  82.5155 261.7941 0018846  32.0117 328.2246 14.97070455772239
SL-16 R/B               
1 22566U 93016B   26043.05338359 -.00000226  00000+0 -91748-4 0  9995
2 22566  71.0058 269.0285 0010475 348.8747  11.2142 14.15302762698548
COSMOS 2242             
1 22626U 93024A   26043.09366426  .00002550  00000+0  22196-3 0  9991
2 22626  82.5191 291.1988 0017426  35.7785 324.4601 14.96443305776569
SL-16 R/B               
1 22803U 93059B   26043.13820903 -.00000058  00000+0 -46830-5 0  9992
2 22803  70.9890  65.0108 0019476 251.8227 108.0776 14.17228266675910
ARIANE 40 R/B           
1 22830U 93061H   26043.14049918  .00000212  00000+0  93620-4 0  9993
2 22830  98.4972 112.5253 0010580   6.3248 353.8068 14.32847312690443
COSMOS 2278             
1 23087U 94023A   26042.92488745 -.00000020  00000+0  14357-4 0  9995
2 23087  71.0500 229.0010 0006742  62.8021 297.3788 14.14363439641167
SL-16 R/B               
1 23088U 94023B   26043.19513013  .00000195  00000+0  12535-3 0  9990
2 23088  70.9995 124.4312 0004544 309.6933  50.3788 14.15004636642484
SL-16 R/B               
1 23343U 94074B   26043.08408501  .00000547  00000+0  80048-4 0  9999
2 23343  97.7144  74.9350 0005472 314.0240  67.8490 14.79377114683464
SL-16 R/B               
1 23405U 94077B   26043.11602844  .00000289  00000+0  17193-3 0  9994
2 23405  70.9821  46.2904 0004164 233.0299 127.0442 14.15559027612616
ARIANE 40+ R/B          
1 23561U 95021B   26043.16636405  .00000319  00000+0  11561-3 0  9999
2 23561  98.4551 114.9880 0006266 209.7225 178.2783 14.39753476615578
SL-16 R/B               
1 23705U 95058B   26042.98041718  .00000227  00000+0  14023-3 0  9999
2 23705  71.0193 234.2301 0011995 168.7416 191.3977 14.15494672564211
SL-16 R/B               
1 24298U 96051B   26042.89125329  .00000110  00000+0  86247-4 0  9991
2 24298  70.7566 229.8443 0017306 184.4249 175.6720 14.12408253518001
ORBVIEW 2 (SEASTAR)     
1 24883U 97037A   26042.97644750  .00000378  00000+0  14764-3 0  9999
2 24883  98.8521 206.6135 0003066 124.0772 236.0704 14.35475036504785
SL-16 R/B               
1 25400U 98043G   26042.77109626  .00000078  00000+0  51749-4 0  9991
2 25400  98.8208 355.9581 0010954  89.6522 270.5913 14.26043548435292
SL-16 R/B               
1 25407U 98045B   26043.00399620  .00000221  00000+0  13565-3 0  9995
2 25407  71.0085 235.5895 0005523  55.6053 304.5592 14.16186137423462
ISS (ZARYA)             
1 25544U 98067A   26042.89126571  .00008863  00000+0  17123-3 0  9994
2 25544  51.6312 199.8857 0011053  89.0260 271.1995 15.48551986552336
CZ-4B R/B               
1 25732U 99025C   26043.11779808  .00000050  00000+0  44853-4 0  9992
2 25732  98.6679  87.9987 0037979  59.5435 315.2826 14.18260165384545
OKEAN-O                 
1 25860U 99039A   26043.16889005  .00000748  00000+0  10510-3 0  9991
2 25860  97.9501 103.3126 0001840  84.0156 276.1266 14.80293283430611
SL-16 R/B               
1 25861U 99039B   26043.17287061  .00000643  00000+0  88402-4 0  9997
2 25861  98.0023 102.3000 0014364 345.5928  14.4873 14.81695209433086
DELTA 2 R/B             
1 25876U 99041E   26043.02686946  .00002281  00000+0  40433-3 0  9996
2 25876  51.7656  43.7630 0502262 272.6225  81.7331 14.11736278359400
HELIOS 1B               
1 25977U 99064A   26043.15450066  .00001960  00000+0  22220-3 0  9996
2 25977  98.1723 304.6442 0002169 111.3594 248.7853 14.87591897681468
TERRA                   
1 25994U 99068A   26043.17008164  .00000505  00000+0  11214-3 0  9994
2 25994  97.9649  97.5726 0000995 246.3970 177.7039 14.60986744391359
SL-16 R/B               
1 26070U 00006B   26042.87140087 -.00000208  00000+0 -81476-4 0  9991
2 26070  71.0029 152.1233 0018282 226.6929 133.2670 14.15820033344909
TITAN 4B R/B            
1 26474U 00047B   26043.18513959  .00003531  00000+0  22562-3 0  9991
2 26474  67.9892 112.2173 0037036  66.7162 293.7878 15.09345590389061
ENVISAT                 
1 27386U 02009A   26042.88592211  .00000144  00000+0  60398-4 0  9995
2 27386  98.3682 357.1050 0001337  88.2206 335.6982 14.39027163255469
IDEFIX & ARIANE 42P R/B 
1 27422U 02021B   26042.83506780  .00000333  00000+0  14306-3 0  9998
2 27422  98.5842 341.7547 0010646 263.8602  96.1368 14.31007486240328
AQUA                    
1 27424U 02022A   26043.22294147  .00001220  00000+0  25371-3 0  9996
2 27424  98.4126  10.1336 0001391  50.6537   5.2643 14.61913355265017
CZ-4B R/B               
1 27432U 02024C   26043.10560711  .00000051  00000+0  48798-4 0  9997
2 27432  98.8898  96.6339 0051193  95.7409 285.5115 14.14542997225629
MIDORI II (ADEOS-II)    
1 27597U 02056A   26042.90175885  .00000375  00000+0  16544-3 0  9997
2 27597  98.7721   1.2090 0002174  78.8272 281.3154 14.29265684206612
H-2A R/B                
1 27601U 02056E   26042.95208443  .00000349  00000+0  13714-3 0  9992
2 27601  98.3153   4.3049 0069123 237.8424 164.1912 14.33742628210421
CZ-4B R/B               
1 28059U 03049C   26042.93925076  .00000559  00000+0  13982-3 0  9999
2 28059  98.6851  36.8397 0047315 311.3092  48.4035 14.54992200182852
CZ-2C R/B               
1 28222U 04012C   26043.12757859  .00052475  00000+0  60667-3 0  9992
2 28222  97.7300 106.0521 0015555  48.4261 311.8326 15.61574827200287
SL-16 R/B               
1 28353U 04021B   26043.07120360  .00000254  00000+0  15697-3 0  9993
2 28353  70.9994 286.2579 0003057  73.5276 286.6182 14.14591499119219
CZ-4B R/B               
1 28415U 04035C   26043.05560587  .00009254  00000+0  32971-3 0  9997
2 28415  97.3547  77.6100 0033961  61.2502 299.2143 15.28585904175994
CZ-2C R/B               
1 28480U 04046B   26043.17257822  .00000139  00000+0  67177-4 0  9999
2 28480  98.1994 319.7416 0138398 230.0555 128.8402 14.26983284104868
